#aV2022 11 21  0  0  0.00000000     288 DD+AD WGS84 FIT  NGA
## 2237  86400.00000000   300.00000000 59904 0.0000000000000
+   31     1  2  3  4  5  6  7  8  9 10 11 12 13 14 15 16 17
+         18 19 20 21 22 23 24 25 26 27 29 30 31 32  0  0  0
+          0  0  0  0  0  0  0  0  0  0  0  0  0  0  0  0  0
+          0  0  0  0  0  0  0  0  0  0  0  0  0  0  0  0  0
+          0  0  0  0  0  0  0  0  0  0  0  0  0  0  0  0  0
++         2  2  2  2  2  2  2  2  2  2  2  2  2  2  2  2  2
++         2  2  2  2  2  2  2  2  2  2  2  2  2  2  0  0  0
++         0  0  0  0  0  0  0  0  0  0  0  0  0  0  0  0  0
++         0  0  0  0  0  0  0  0  0  0  0  0  0  0  0  0  0
++         0  0  0  0  0  0  0  0  0  0  0  0  0  0  0  0  0
%c cc cc ccc ccc cccc cccc cccc cccc ccccc ccccc ccccc ccccc
%c cc cc ccc ccc cccc cccc cccc cccc ccccc ccccc ccccc ccccc
%f  0.0000000  0.000000000  0.00000000000  0.000000000000000
%f  0.0000000  0.000000000  0.00000000000  0.000000000000000
%i    0    0    0    0      0      0      0      0         0
%i    0    0    0    0      0      0      0      0         0
/*      NGA, ST. LOUIS,MO.                                  
/*   EPHEMERIS COMPUTED FROM 2 DAYS OF DATA                 
/*   EPOCHA v8 SMOOTHER                                     
/*   G2139 IERS2010 SATIGS SATAPC                           
*  2022 11 21  4  0  0.00000000
P  1  13551.315902  -6155.197935  21650.454970    248.744413                    
V  1   4151.195550  27901.567441   5588.124440     -0.055452                    
P  2 -12147.926885  10507.173669 -20563.200830   -636.881275                    
V  2  -6880.121938 -26646.533514  -9077.633202      0.017966                    
P  3  22688.320825 -11011.758610   8038.602520   -373.688644                    
V  3  -6739.614186   8224.198135  29933.238788     -0.015110                    
P  4  21815.130280  -1954.490969 -15097.000825    -82.741884                    
V  4  16742.572258   9456.222180  22863.137769      0.067867                    
P  5 -19497.831306     86.197070 -18260.262022   -105.096774                    
V  5  16318.807581 -15966.431239 -17551.809653     -0.014450                    
P  6  -6172.532767 -25472.956956  -3956.980020    523.144161                    
V  6   1256.188320  -5329.810370  31888.158633      0.089440                    
P  7   7312.732612 -20662.130869 -14223.594386    284.817487                    
V  7   5456.539631  18426.667604 -23760.850820     -0.047800                    
P  8  25627.492746   5478.840889   5362.756213    -94.823892                    
V  8   5530.660051   4631.714130 -30551.191770     -0.018904                    
P  9  12322.355819 -11134.624927 -20817.790095   -265.545675                    
V  9  24311.712834   9961.657048   9053.083627      0.057614                    
P 10  -4929.955820  19195.298491  17682.734094    -12.780183                    
V 10 -18349.033826  12633.539286 -19306.443103     -0.016188                    
P 11 -11997.195575 -18559.955437 -14752.834892    -43.115085                    
V 11    231.114599 -18824.525584  23445.852914     -0.062385                    
P 12 -23394.394497   8976.045060   8379.162010   -306.717283                    
V 12   7678.597511  -8323.967459  29513.156138     -0.044863                    
P 13 -22996.682867 -13487.022410   -612.593008    428.320183                    
V 13   1674.455549  -1819.486957 -31793.463424      0.067881                    
P 14   7640.691281 -19760.966030  15954.128804    -80.104221                    
V 14  17658.014180 -10285.892953 -21319.118940      0.054035                    
P 15 -26023.601256  -2685.731267   4935.613350    -10.660627                    
V 15  -5756.962425  -5023.916500 -30053.990456      0.032122                    
P 16  16450.123369   6011.747662 -20383.461954   -526.844840                    
V 16 -20599.709155  14364.272067 -12108.187772      0.001520                    
P 17  -1456.020365 -16510.668241  21179.529349    679.680527                    
V 17  23677.915075  10402.057344  10020.430897      0.032364                    
P 18  -6158.769806  22206.983303 -13077.872053    -29.720806                    
V 18  -4129.519554 -16248.621266 -25782.952065     -0.141163                    
P 19 -13130.740652 -17980.916227  14445.697272    240.150110                    
V 19  17245.862944   7199.372473  23995.263430      0.050838                    
P 20 -10723.760473 -11270.173919 -21515.284831    468.686640                    
V 20  18478.930110 -20245.453338   1168.616908     -0.024801                    
P 21  16217.016130   3513.789503  21484.555806    155.605165                    
V 21   5562.019766  25134.508076  -7797.939064     -0.008198                    
P 22  15331.990011  17766.999492  13029.625969    368.822368                    
V 22 -15044.066244  -5224.422522  25491.533054      0.077960                    
P 23 -14610.665384  20212.808643   8921.833699     -0.876250                    
V 23 -10239.197290   5478.892464 -29295.578863      0.003200                    
P 24 -15563.371684   1979.832837  21109.857401     50.126724                    
V 24  -6253.705810 -26969.138236  -1628.883094     -0.162590                    
P 25 -20059.409702  17154.047706  -1066.814900    394.638677                    
V 25  -2818.777380  -1880.397172  31777.164668      0.037079                    
P 26   7363.251908  14336.425267 -21168.816495    236.394025                    
V 26 -20423.895905  17366.120967   5011.307649      0.011114                    
P 27  22664.968147  13154.753073  -5714.001033    173.107412                    
V 27  -7170.315331   -589.664982 -30603.238131     -0.090335                    
P 29 -14693.446792   8246.828328 -20593.163148   -568.660593                    
V 29 -23016.343542 -12079.353379  11530.034992     -0.026597                    
P 30   -502.458883 -26098.035803  -4010.189061   -536.485865                    
V 30   4436.163335   4712.909719 -30796.532877      0.004398                    
P 31   7081.977294  24737.144271  -5663.164160   -200.845844                    
V 31  -2380.367744   7439.064465  30811.493364     -0.011980                    
P 32   5764.259498  17087.100738  19715.564353   -303.176513                    
V 32 -23390.650701  -7871.016872  13569.735054     -0.126972                    
EOF
